[{"OBJECT_NAME":"HULIANWANG DIGUI-02","OBJECT_ID":"2024-240B","EPOCH":"2026-03-09T23:05:19.978656","MEAN_MOTION":13.24422566,"ECCENTRICITY":0.00019361,"INCLINATION":86.5066,"RA_OF_ASC_NODE":16.8213,"ARG_OF_PERICENTER":88.2161,"MEAN_ANOMALY":271.9194,"EPHEMERIS_TYPE":0,"CLASSIFICATION_TYPE":"U","NORAD_CAT_ID":62324,"ELEMENT_SET_NO":999,"REV_AT_EPOCH":5951,"BSTAR":0.00015289191,"MEAN_MOTION_DOT":8.0e-7,"MEAN_MOTION_DDOT":0},{"OBJECT_NAME":"SL-8 DEB","OBJECT_ID":"1969-024C","EPOCH":"2026-03-09T03:58:43.078368","MEAN_MOTION":13.28184886,"ECCENTRICITY":0.00148257,"INCLINATION":73.9853,"RA_OF_ASC_NODE":93.6947,"ARG_OF_PERICENTER":275.3771,"MEAN_ANOMALY":165.4645,"EPHEMERIS_TYPE":0,"CLASSIFICATION_TYPE":"U","NORAD_CAT_ID":6289,"ELEMENT_SET_NO":999,"REV_AT_EPOCH":75223,"BSTAR":0.00075827564,"MEAN_MOTION_DOT":3.25e-6,"MEAN_MOTION_DDOT":0}]
